{"type": "FeatureCollection", "features": [ {"type": "Feature", "properties": {"norad_id": 34833, "name": "IRIDIUM 33 DEB", "group": "iridium-33-debris", "lat": 27.353725178362993, "lon": 49.86252854892416, "alt_km": 706.8082785272, "timestamp": "2025-12-19T16:54:44.647543+00:00", "meta": {"OBJECT_NAME": "IRIDIUM 33 DEB", "OBJECT_ID": "1997-051MH", "EPOCH": "2025-12-19T03:48:32.105088", "MEAN_MOTION": 14.52413919, "ECCENTRICITY": 0.00216401, "INCLINATION": 86.3931, "RA_OF_ASC_NODE": 48.2278, "ARG_OF_PERICENTER": 79.0912, "MEAN_ANOMALY": 335.6925, "EPHEMERIS_TYPE": 0, "CLASSIFICATION_TYPE": "U", "NORAD_CAT_ID": 34833, "ELEMENT_SET_NO": 999, "REV_AT_EPOCH": 87808, "BSTAR": 0.00053191579, "MEAN_MOTION_DOT": 2.194e-05, "MEAN_MOTION_DDOT": 0}, "tle": {"line1": "1 34833U 97051MH  25353.15870492  .00002194  00000+0  53192-3 0  9995", "line2": "2 34833  86.3931  48.2278 0021640  79.0912 335.6925 14.52413919878088"}}, "geometry": {"type": "Point", "coordinates": [49.86252854892416, 27.353725178362993]}}, {"type": "Feature", "properties": {"norad_id": 34870, "name": "IRIDIUM 33 DEB", "group": "iridium-33-debris", "lat": -63.20215031983947, "lon": 138.23404707273525, "alt_km": 646.6213176421406, "timestamp": "2025-12-19T16:54:44.647560+00:00", "meta": {"OBJECT_NAME": "IRIDIUM 33 DEB", "OBJECT_ID": "1997-051MQ", "EPOCH": "2025-12-17T15:48:12.189024", "MEAN_MOTION": 14.76525212, "ECCENTRICITY": 0.00169592, "INCLINATION": 86.3102, "RA_OF_ASC_NODE": 311.8309, "ARG_OF_PERICENTER": 164.6796, "MEAN_ANOMALY": 8.9227, "EPHEMERIS_TYPE": 0, "CLASSIFICATION_TYPE": "U", "NORAD_CAT_ID": 34870, "ELEMENT_SET_NO": 999, "REV_AT_EPOCH": 88983, "BSTAR": 0.0011120343, "MEAN_MOTION_DOT": 7.793e-05, "MEAN_MOTION_DDOT": 0}, "tle": {"line1": "1 34870U 97051MQ  25351.65847441  .00007793  00000+0  11120-2 0  9991", "line2": "2 34870  86.3102 311.8309 0016959 164.6796   8.9227 14.76525212889837"}}, "geometry": {"type": "Point", "coordinates": [138.23404707273525, -63.20215031983947]}}, {"type": "Feature", "properties": {"norad_id": 34896, "name": "IRIDIUM 33 DEB", "group": "iridium-33-debris", "lat": -9.341502933663563, "lon": 144.1662342318392, "alt_km": 659.4463665924795, "timestamp": "2025-12-19T16:54:44.647579+00:00", "meta": {"OBJECT_NAME": "IRIDIUM 33 DEB", "OBJECT_ID": "1997-051MY", "EPOCH": "2025-12-17T17:20:43.717344", "MEAN_MOTION": 14.6632638, "ECCENTRICITY": 0.00248916, "INCLINATION": 86.3286, "RA_OF_ASC_NODE": 324.4498, "ARG_OF_PERICENTER": 196.3048, "MEAN_ANOMALY": 337.3904, "EPHEMERIS_TYPE": 0, "CLASSIFICATION_TYPE": "U", "NORAD_CAT_ID": 34896, "ELEMENT_SET_NO": 999, "REV_AT_EPOCH": 87692, "BSTAR": 0.00069874419, "MEAN_MOTION_DOT": 3.895e-05, "MEAN_MOTION_DDOT": 0}, "tle": {"line1": "1 34896U 97051MY  25351.72272821  .00003895  00000+0  69874-3 0  9990", "line2": "2 34896  86.3286 324.4498 0024891 196.3048 337.3904 14.66326380876924"}}, "geometry": {"type": "Point", "coordinates": [144.1662342318392, -9.341502933663563]}}, {"type": "Feature", "properties": {"norad_id": 34926, "name": "IRIDIUM 33 DEB", "group": "iridium-33-debris", "lat": -17.118621125834228, "lon": 3.849801099218477, "alt_km": 700.4373617573383, "timestamp": "2025-12-19T16:54:44.647594+00:00", "meta": {"OBJECT_NAME": "IRIDIUM 33 DEB", "OBJECT_ID": "1997-051NF", "EPOCH": "2025-12-18T12:00:33.859296", "MEAN_MOTION": 14.54673553, "ECCENTRICITY": 0.007466, "INCLINATION": 86.1318, "RA_OF_ASC_NODE": 5.6024, "ARG_OF_PERICENTER": 272.8788, "MEAN_ANOMALY": 246.5366, "EPHEMERIS_TYPE": 0, "CLASSIFICATION_TYPE": "U", "NORAD_CAT_ID": 34926, "ELEMENT_SET_NO": 999, "REV_AT_EPOCH": 86540, "BSTAR": 0.0047273408, "MEAN_MOTION_DOT": 0.00021041, "MEAN_MOTION_DDOT": 0}, "tle": {"line1": "1 34926U 97051NF  25352.50039189  .00021041  00000+0  47273-2 0  9990", "line2": "2 34926  86.1318   5.6024 0074660 272.8788 246.5366 14.54673553865403"}}, "geometry": {"type": "Point", "coordinates": [3.849801099218477, -17.118621125834228]}}, {"type": "Feature", "properties": {"norad_id": 34985, "name": "IRIDIUM 33 DEB", "group": "iridium-33-debris", "lat": 27.305254627943686, "lon": -127.96929327232172, "alt_km": 739.7965197341746, "timestamp": "2025-12-19T16:54:44.647605+00:00", "meta": {"OBJECT_NAME": "IRIDIUM 33 DEB", "OBJECT_ID": "1997-051NR", "EPOCH": "2025-12-18T03:42:15.992064", "MEAN_MOTION": 14.42032375, "ECCENTRICITY": 0.00213063, "INCLINATION": 86.3697, "RA_OF_ASC_NODE": 54.5701, "ARG_OF_PERICENTER": 201.5738, "MEAN_ANOMALY": 187.9746, "EPHEMERIS_TYPE": 0, "CLASSIFICATION_TYPE": "U", "NORAD_CAT_ID": 34985, "ELEMENT_SET_NO": 999, "REV_AT_EPOCH": 87253, "BSTAR": 0.00049263148, "MEAN_MOTION_DOT": 1.64e-05, "MEAN_MOTION_DDOT": 0}, "tle": {"line1": "1 34985U 97051NR  25352.15435176  .00001640  00000+0  49263-3 0  9997", "line2": "2 34985  86.3697  54.5701 0021306 201.5738 187.9746 14.42032375872538"}}, "geometry": {"type": "Point", "coordinates": [-127.96929327232172, 27.305254627943686]}}, {"type": "Feature", "properties": {"norad_id": 35051, "name": "IRIDIUM 33 DEB", "group": "iridium-33-debris", "lat": -45.397036646772015, "lon": -170.43602395709686, "alt_km": 746.9308399277834, "timestamp": "2025-12-19T16:54:44.647616+00:00", "meta": {"OBJECT_NAME": "IRIDIUM 33 DEB", "OBJECT_ID": "1997-051NX", "EPOCH": "2025-12-19T07:34:48.668448", "MEAN_MOTION": 14.47625509, "ECCENTRICITY": 0.00104834, "INCLINATION": 86.3238, "RA_OF_ASC_NODE": 5.9957, "ARG_OF_PERICENTER": 72.9006, "MEAN_ANOMALY": 287.3345, "EPHEMERIS_TYPE": 0, "CLASSIFICATION_TYPE": "U", "NORAD_CAT_ID": 35051, "ELEMENT_SET_NO": 999, "REV_AT_EPOCH": 87091, "BSTAR": 0.00045048396, "MEAN_MOTION_DOT": 1.68e-05, "MEAN_MOTION_DDOT": 0}, "tle": {"line1": "1 35051U 97051NX  25353.31584107  .00001680  00000+0  45048-3 0  9991", "line2": "2 35051  86.3238   5.9957 0010483  72.9006 287.3345 14.47625509870911"}}, "geometry": {"type": "Point", "coordinates": [-170.43602395709686, -45.397036646772015]}}, {"type": "Feature", "properties": {"norad_id": 35052, "name": "IRIDIUM 33 DEB", "group": "iridium-33-debris", "lat": 33.41655094585669, "lon": -164.93678902606555, "alt_km": 759.9734883408082, "timestamp": "2025-12-19T16:54:44.647626+00:00", "meta": {"OBJECT_NAME": "IRIDIUM 33 DEB", "OBJECT_ID": "1997-051NY", "EPOCH": "2025-12-19T01:12:36.651744", "MEAN_MOTION": 14.38499195, "ECCENTRICITY": 0.00134504, "INCLINATION": 86.3303, "RA_OF_ASC_NODE": 17.7705, "ARG_OF_PERICENTER": 67.3958, "MEAN_ANOMALY": 292.8661, "EPHEMERIS_TYPE": 0, "CLASSIFICATION_TYPE": "U", "NORAD_CAT_ID": 35052, "ELEMENT_SET_NO": 999, "REV_AT_EPOCH": 87366, "BSTAR": 0.00014239762, "MEAN_MOTION_DOT": 4.55e-06, "MEAN_MOTION_DDOT": 0}, "tle": {"line1": "1 35052U 97051NY  25353.05042421  .00000455  00000+0  14240-3 0  9990", "line2": "2 35052  86.3303  17.7705 0013450  67.3958 292.8661 14.38499195873665"}}, "geometry": {"type": "Point", "coordinates": [-164.93678902606555, 33.41655094585669]}}, {"type": "Feature", "properties": {"norad_id": 35080, "name": "IRIDIUM 33 DEB", "group": "iridium-33-debris", "lat": 81.22196021310752, "lon": 74.48013872534789, "alt_km": 588.5803596481201, "timestamp": "2025-12-19T16:54:44.647637+00:00", "meta": {"OBJECT_NAME": "IRIDIUM 33 DEB", "OBJECT_ID": "1997-051PF", "EPOCH": "2025-12-18T03:23:24.146880", "MEAN_MOTION": 14.86677216, "ECCENTRICITY": 0.00593996, "INCLINATION": 86.2085, "RA_OF_ASC_NODE": 49.7944, "ARG_OF_PERICENTER": 161.1545, "MEAN_ANOMALY": 199.1899, "EPHEMERIS_TYPE": 0, "CLASSIFICATION_TYPE": "U", "NORAD_CAT_ID": 35080, "ELEMENT_SET_NO": 999, "REV_AT_EPOCH": 69768, "BSTAR": 0.004837816, "MEAN_MOTION_DOT": 0.0004462, "MEAN_MOTION_DDOT": 0}, "tle": {"line1": "1 35080U 97051PF  25352.14125170  .00044620  00000+0  48378-2 0  9993", "line2": "2 35080  86.2085  49.7944 0059399 161.1545 199.1899 14.86677216697682"}}, "geometry": {"type": "Point", "coordinates": [74.48013872534789, 81.22196021310752]}}, {"type": "Feature", "properties": {"norad_id": 35297, "name": "IRIDIUM 33 DEB", "group": "iridium-33-debris", "lat": -40.55203097919653, "lon": -117.11283952512866, "alt_km": 750.5874909291169, "timestamp": "2025-12-19T16:54:44.647648+00:00", "meta": {"OBJECT_NAME": "IRIDIUM 33 DEB", "OBJECT_ID": "1997-051PM", "EPOCH": "2025-12-16T11:27:21.167712", "MEAN_MOTION": 14.45174956, "ECCENTRICITY": 0.00178431, "INCLINATION": 86.3863, "RA_OF_ASC_NODE": 61.1645, "ARG_OF_PERICENTER": 129.6186, "MEAN_ANOMALY": 230.6595, "EPHEMERIS_TYPE": 0, "CLASSIFICATION_TYPE": "U", "NORAD_CAT_ID": 35297, "ELEMENT_SET_NO": 999, "REV_AT_EPOCH": 70480, "BSTAR": 0.00045011402, "MEAN_MOTION_DOT": 1.598e-05, "MEAN_MOTION_DDOT": 0}, "tle": {"line1": "1 35297U 97051PM  25350.47732833  .00001598  00000+0  45011-3 0  9996", "line2": "2 35297  86.3863  61.1645 0017843 129.6186 230.6595 14.45174956704806"}}, "geometry": {"type": "Point", "coordinates": [-117.11283952512866, -40.55203097919653]}}, {"type": "Feature", "properties": {"norad_id": 35299, "name": "IRIDIUM 33 DEB", "group": "iridium-33-debris", "lat": 45.1020946790565, "lon": 33.890066324546645, "alt_km": 717.1787592994469, "timestamp": "2025-12-19T16:54:44.647657+00:00", "meta": {"OBJECT_NAME": "IRIDIUM 33 DEB", "OBJECT_ID": "1997-051PP", "EPOCH": "2025-12-18T02:30:13.094208", "MEAN_MOTION": 14.40886995, "ECCENTRICITY": 0.00588566, "INCLINATION": 86.2881, "RA_OF_ASC_NODE": 30.8512, "ARG_OF_PERICENTER": 85.3219, "MEAN_ANOMALY": 304.2144, "EPHEMERIS_TYPE": 0, "CLASSIFICATION_TYPE": "U", "NORAD_CAT_ID": 35299, "ELEMENT_SET_NO": 999, "REV_AT_EPOCH": 86408, "BSTAR": 0.00059608635, "MEAN_MOTION_DOT": 1.971e-05, "MEAN_MOTION_DDOT": 0}, "tle": {"line1": "1 35299U 97051PP  25352.10431822  .00001971  00000+0  59609-3 0  9997", "line2": "2 35299  86.2881  30.8512 0058856  85.3219 304.2144 14.40886995864080"}}, "geometry": {"type": "Point", "coordinates": [33.890066324546645, 45.1020946790565]}}]}